{
    "links": {
        "self": "http://www.neowsapp.com/rest/v1/neo/3799271?api_key=iIulBulltgU6a56xZRHN4H3l9WmuAYTsLGpBGhQ2"
    },
    "id": "3799271",
    "neo_reference_id": "3799271",
    "name": "(2018 CA2)",
    "designation": "2018 CA2",
    "nasa_jpl_url": "http://ssd.jpl.nasa.gov/sbdb.cgi?sstr=3799271",
    "absolute_magnitude_h": 26.1,
    "estimated_diameter": {
        "kilometers": {
            "estimated_diameter_min": 0.0160160338,
            "estimated_diameter_max": 0.0358129403
        },
        "meters": {
            "estimated_diameter_min": 16.0160337979,
            "estimated_diameter_max": 35.8129403019
        },
        "miles": {
            "estimated_diameter_min": 0.0099518989,
            "estimated_diameter_max": 0.0222531225
        },
        "feet": {
            "estimated_diameter_min": 52.5460443254,
            "estimated_diameter_max": 117.4965270602
        }
    },
    "is_potentially_hazardous_asteroid": false,
    "close_approach_data": [
        {
            "close_approach_date": "2015-12-19",
            "close_approach_date_full": "2015-Dec-19 10:52",
            "epoch_date_close_approach": 1450522320000,
            "relative_velocity": {
                "kilometers_per_second": "4.3540300215",
                "kilometers_per_hour": "15674.5080775214",
                "miles_per_hour": "9739.5297551688"
            },
            "miss_distance": {
                "astronomical": "0.497855794",
                "lunar": "193.665903866",
                "kilometers": "74478166.34955878",
                "miles": "46278586.603039964"
            },
            "orbiting_body": "Earth"
        },
        {
            "close_approach_date": "2016-04-20",
            "close_approach_date_full": "2016-Apr-20 11:11",
            "epoch_date_close_approach": 1461150660000,
            "relative_velocity": {
                "kilometers_per_second": "15.5820203957",
                "kilometers_per_hour": "56095.2734245049",
                "miles_per_hour": "34855.4214231319"
            },
            "miss_distance": {
                "astronomical": "0.3827304521",
                "lunar": "148.8821458669",
                "kilometers": "57255660.418297027",
                "miles": "35577017.6556998926"
            },
            "orbiting_body": "Earth"
        },
        {
            "close_approach_date": "2018-02-13",
            "close_approach_date_full": "2018-Feb-13 20:28",
            "epoch_date_close_approach": 1518553680000,
            "relative_velocity": {
                "kilometers_per_second": "7.4065638752",
                "kilometers_per_hour": "26663.6299508167",
                "miles_per_hour": "16567.7427324949"
            },
            "miss_distance": {
                "astronomical": "0.0267591656",
                "lunar": "10.4093154184",
                "kilometers": "4003114.176737272",
                "miles": "2487419.8062354736"
            },
            "orbiting_body": "Earth"
        },
        {
            "close_approach_date": "2020-01-07",
            "close_approach_date_full": "2020-Jan-07 07:09",
            "epoch_date_close_approach": 1578380940000,
            "relative_velocity": {
                "kilometers_per_second": "20.1751200856",
                "kilometers_per_hour": "72630.4323082021",
                "miles_per_hour": "45129.7261195048"
            },
            "miss_distance": {
                "astronomical": "0.4985071869",
                "lunar": "193.9192957041",
                "kilometers": "74575613.339931903",
                "miles": "46339137.3550821414"
            },
            "orbiting_body": "Earth"
        }
    ],
    "orbital_data": {
        "orbit_id": "5",
        "orbit_determination_date": "2018-03-08 06:27:39",
        "first_observation_date": "2018-02-08",
        "last_observation_date": "2018-02-15",
        "data_arc_in_days": 7,
        "observations_used": 56,
        "orbit_uncertainty": "7",
        "minimum_orbit_intersection": ".0219921",
        "jupiter_tisserand_invariant": "4.371",
        "epoch_osculation": "2459000.5",
        "eccentricity": ".3520353712277988",
        "semi_major_axis": "1.54657372541504",
        "inclination": "9.50801823372117",
        "ascending_node_longitude": "324.5095432592668",
        "orbital_period": "702.513005144427",
        "perihelion_distance": "1.002125069857396",
        "perihelion_argument": "195.4579753514522",
        "aphelion_distance": "2.091022380972683",
        "perihelion_time": "2458878.406537926486",
        "mean_anomaly": "62.56630983995615",
        "mean_motion": ".5124460292745598",
        "equinox": "J2000",
        "orbit_class": {
            "orbit_class_type": "APO",
            "orbit_class_description": "Near-Earth asteroid orbits which cross the Earth’s orbit similar to that of 1862 Apollo",
            "orbit_class_range": "a (semi-major axis) > 1.0 AU; q (perihelion) < 1.017 AU"
        }
    },
    "is_sentry_object": false
}